SL-3 R/B                
1 19046U 88032B   22288.41901328  .00002890  00000+0  20980-3 0  9991
2 19046  97.3990 282.1412 0035909 187.5457 172.5234 15.04135029864936
SL-16 R/B               
1 19120U 88039B   22287.42394674  .00000072  00000+0  57104-4 0  9990
2 19120  71.0152 174.5495 0019693  84.6567 275.6804 14.19261242782102
COSMOS 1953             
1 19210U 88050A   22287.81406005  .00003631  00000+0  23471-3 0  9991
2 19210  82.5160 304.6406 0013403 103.2741 256.9983 15.07862859849542
SL-8 R/B                
1 19257U 88053B   22288.15855309  .00000317  00000+0  11406-3 0  9991
2 19257  74.0479 238.4187 0020268   3.2713  97.2148 14.37648604798383
COSMOS 1975             
1 19573U 88093A   22288.20962269  .00005515  00000+0  36809-3 0  9995
2 19573  82.5180 260.3438 0014114 139.0985 221.1305 15.06769322852496
SL-14 R/B               
1 19574U 88093B   22287.53802875  .00000490  00000+0  56390-4 0  9992
2 19574  82.5292 125.9888 0021483 177.8868 242.4281 14.83570257816741
SL-16 R/B               
1 19650U 88102B   22288.35757370  .00000070  00000+0  59997-4 0  9998
2 19650  70.9987 242.6814 0012068 102.7884 257.4589 14.15841105751459
INTERCOSMOS 24          
1 20261U 89080A   22288.20646980  .00000797  00000+0  24060-3 0  9990
2 20261  82.6081 190.2005 1199925 286.7186  60.5775 12.56550796510281
SL-14 R/B               
1 20262U 89080C   22287.85246422  .00000248  00000+0  66529-4 0  9996
2 20262  82.5912 249.7731 1236909 140.2354 229.6378 12.49106530504606
DELTA 2 R/B(1)          
1 20303U 89085B   22287.71631647  .00037136  00000+0  84746-3 0  9995
2 20303  35.6390  48.0046 0072423 207.5634 152.1246 15.39110037798817
DELTA 1 R/B             
1 20323U 89089B   22287.85857114  .00000375  00000+0  10523-3 0  9992
2 20323  97.0710 310.3149 0073033  78.7714 282.1681 14.48580717715823
ARIANE 40 R/B           
1 20443U 90005H   22288.14615137  .00000297  00000+0  11193-3 0  9992
2 20443  98.4718 354.4038 0009711 333.9061  26.1636 14.38286714714507
DELTA 2 R/B(1)          
1 20453U 90008B   22287.67937684  .00008969  00000+0  45771-3 0  9990
2 20453  35.6242 275.0358 0262207 213.5757 144.8094 14.90913454737701
COSMOS 2058             
1 20465U 90010A   22288.09594108  .00002634  00000+0  21377-3 0  9992
2 20465  82.4905 175.2876 0014049 210.1350 149.9067 14.99213071776668
SL-14 R/B               
1 20466U 90010B   22288.16506434  .00000430  00000+0  51545-4 0  9999
2 20466  82.5055 351.4892 0021857  67.6322 292.7205 14.81613955765598
SL-14 R/B               
1 20511U 90018B   22288.11056667  .00000402  00000+0  49716-4 0  9997
2 20511  82.5199 301.7181 0016631 206.5051 213.7713 14.80258579759893
HST                     
1 20580U 90037B   22287.86992031  .00004008  00000+0  22285-3 0  9996
2 20580  28.4695  97.2826 0002168 244.6750 227.5762 15.11055709584293
SL-16 R/B               
1 20625U 90046B   22287.99985260 -.00000106  00000+0 -30514-4 0  9998
2 20625  71.0025  24.9849 0013368  21.6595 338.5090 14.14710011673012
COSMOS 2084             
1 20663U 90055A   22288.12699002  .00003752  00000+0  32189-3 0  9999
2 20663  62.7930 209.4157 0126766  62.0537 299.3322 14.93284129750178
SL-6 R/B(2)             
1 20666U 90055D   22288.09267786  .00002752  00000+0  23552-3 0  9991
2 20666  62.7828 123.7033 0132423  84.1501 277.4671 14.93612729751593
SL-8 R/B                
1 20775U 90078B   22287.85703783  .00013107  00000+0  60131-3 0  9992
2 20775  82.9241 243.4464 0547085  73.5625 292.4952 14.41332517627709
SL-8 R/B                
1 21088U 91006B   22287.79493428  .00000099  00000+0  84845-4 0  9992
2 21088  82.9471  13.7184 0021219 273.1674 236.6937 13.77217280593114
OKEAN-3                 
1 21397U 91039A   22287.86223801  .00003063  00000+0  28440-3 0  9997
2 21397  82.5190  88.8846 0016842 201.1657 158.8869 14.94000018679008
COSMOS 2151             
1 21422U 91042A   22288.24421153  .00001701  00000+0  16151-3 0  9996
2 21422  82.5034 193.5953 0012309 274.2233  85.7580 14.92906144698701
SL-14 R/B               
1 21423U 91042B   22287.78269954  .00000430  00000+0  53703-4 0  9997
2 21423  82.4908 303.0211 0017513   1.8051 358.3222 14.80003291669270
ERS-1                   
1 21574U 91050A   22287.89534518  .00000275  00000+0  10557-3 0  9992
2 21574  98.7126 258.2627 0031786 284.7225  75.0439 14.37948276637185
ARIANE 40 R/B           
1 21610U 91050F   22288.10229946  .00000368  00000+0  12768-3 0  9993
2 21610  98.3696 355.2201 0002605 206.1459 153.9599 14.41124674640332
INTERCOSMOS 25          
1 21819U 91086A   22288.09016443  .00001935  00000+0  39381-3 0  9998
2 21819  82.6059 336.9438 1511881 260.5738  82.1892 12.06059586346662
SL-8 R/B                
1 21876U 92008B   22287.89836227  .00000007  00000+0 -85866-5 0  9994
2 21876  82.9228 111.0517 0034903   4.5765 104.2355 13.75715712538666
SL-8 R/B                
1 21938U 92020B   22288.20467146  .00000076  00000+0  62639-4 0  9990
2 21938  82.9340 355.6852 0029772 160.2509 210.3264 13.75316196530777
COSMOS 2219             
1 22219U 92076A   22287.89296674 -.00000251  00000+0 -10778-3 0  9997
2 22219  71.0588  93.1770 0020760 294.5295  65.3662 14.13709343542852
SL-16 R/B               
1 22220U 92076B   22287.78417201  .00000232  00000+0  14032-3 0  9992
2 22220  70.9984 283.6435 0013424 197.8908 334.1301 14.16510059545948
COSMOS 2221             
1 22236U 92080A   22287.51240051  .00001781  00000+0  18768-3 0  9992
2 22236  82.5114  21.0767 0017049  27.2344 332.9764 14.88721005595542
SL-16 R/B               
1 22285U 92093B   22287.91430091  .00000284  00000+0  17073-3 0  9994
2 22285  71.0201  90.3605 0003383  12.5679 347.5527 14.15105347537786
COSMOS 2228             
1 22286U 92094A   22288.13977588  .00001617  00000+0  16865-3 0  9997
2 22286  82.5207 337.7326 0021855 134.8121 225.4879 14.88984519611909
SL-16 R/B               
1 22566U 93016B   22288.13255425  .00000045  00000+0  47962-4 0  9999
2 22566  71.0072 302.1540 0008618  42.1089 318.0695 14.15018513526534
COSMOS 2242             
1 22626U 93024A   22287.80292062  .00001796  00000+0  18857-3 0  9990
2 22626  82.5248   6.5422 0019684 136.1856 224.0928 14.88811490595488
SL-16 R/B               
1 22803U 93059B   22287.93801085 -.00000172  00000+0 -61452-4 0  9999
2 22803  70.9883 108.9866 0019305 298.5992  61.3189 14.16880568503881
ARIANE 40 R/B           
1 22830U 93061H   22288.10660370  .00000228  00000+0  10245-3 0  9995
2 22830  98.6510 350.5806 0010624 353.6232   6.4814 14.31597856516633
COSMOS 2278             
1 23087U 94023A   22288.17640372 -.00000106  00000+0 -31028-4 0  9996
2 23087  71.0516 251.4953 0007111 136.4458 223.7227 14.13881625469544
SL-16 R/B               
1 23088U 94023B   22287.88349632  .00000171  00000+0  11355-3 0  9999
2 23088  71.0000 158.1779 0003247 344.7857  15.3167 14.14727652470444
SL-16 R/B               
1 23343U 94074B   22287.90861128  .00000478  00000+0  74816-4 0  9993
2 23343  97.8790 338.1833 0005534 295.8617 238.9985 14.77114301503798
SL-16 R/B               
1 23405U 94077B   22288.41664527 -.00000039  00000+0  47053-5 0  9994
2 23405  70.9811  83.2395 0004767 258.9948 101.0638 14.15266014440862
ERS-2                   
1 23560U 95021A   22288.32492133  .00013744  00000+0  50146-3 0  9999
2 23560  98.4979 210.3453 0004452 126.6084 233.5562 15.28288901471646
ARIANE 40+ R/B          
1 23561U 95021B   22288.14092622  .00000313  00000+0  11781-3 0  9999
2 23561  98.6100 345.8475 0005944 245.9070 168.2631 14.38206875440917
SL-16 R/B               
1 23705U 95058B   22287.44072813 -.00000224  00000+0 -90727-4 0  9992
2 23705  71.0202 267.6160 0013986 221.2965 138.7101 14.15182838392087
SL-16 R/B               
1 24298U 96051B   22288.21362228  .00000083  00000+0  71362-4 0  9997
2 24298  70.8212 278.0941 0017138 182.9325 177.1698 14.12440857346602
ORBVIEW 2 (SEASTAR)     
1 24883U 97037A   22287.35264866  .00000396  00000+0  15852-3 0  9993
2 24883  98.6957  51.1976 0003315 113.3598 246.7935 14.33800658330349
SL-16 R/B               
1 25400U 98043G   22287.53810960  .00000111  00000+0  65364-4 0  9998
2 25400  98.6795 222.3875 0010447  28.1944 331.9799 14.25533853262213
SL-16 R/B               
1 25407U 98045B   22287.91117064  .00000095  00000+0  72510-4 0  9996
2 25407  71.0101 272.2797 0005471 129.9165 230.2440 14.15875424251314
ISS (ZARYA)             
1 25544U 98067A   22288.57211873  .00015559  00000+0  27937-3 0  9991
2 25544  51.6417 100.1612 0003375 306.6409 164.3407 15.50068412363855
CZ-4B R/B               
1 25732U 99025C   22287.87811444  .00000070  00000+0  55927-4 0  9990
2 25732  98.8418 328.7891 0036445 307.1479 226.2047 14.17748881212175
OKEAN-O                 
1 25860U 99039A   22287.14621255  .00000619  00000+0  95162-4 0  9990
2 25860  98.1267 327.9634 0001669  74.7594 285.3800 14.77048117250775
SL-16 R/B               
1 25861U 99039B   22288.09947297  .00000580  00000+0  86061-4 0  9998
2 25861  98.1706 317.0352 0014510 311.4623  48.5341 14.78923690253315
DELTA 2 R/B             
1 25876U 99041E   22288.30628171  .00001348  00000+0  26633-3 0  9999
2 25876  51.7658 193.9467 0528338 303.8084  51.3598 14.05328680188090
HELIOS 1B               
1 25977U 99064A   22287.50446750  .00000796  00000+0  10531-3 0  9994
2 25977  98.3148 126.5055 0002300 106.3616 253.7850 14.82899290500925
TERRA                   
1 25994U 99068A   22288.51627494  .00000501  00000+0  11875-3 0  9991
2 25994  98.1260 357.6208 0004167 170.0596 314.2247 14.58030505214106
SL-16 R/B               
1 26070U 00006B   22288.17028319  .00000007  00000+0  28243-4 0  9993
2 26070  71.0035 187.6288 0018974 271.6266  88.2683 14.15506019172830
TITAN 4B R/B            
1 26474U 00047B   22288.10502372  .00003806  00000+0  32813-3 0  9992
2 26474  67.9939 255.5947 0056536 338.2434  21.6307 14.97209460206433
ENVISAT                 
1 27386U 02009A   22288.48013036  .00000256  00000+0  97835-4 0  9992
2 27386  98.1984 264.0388 0001246  88.4648  22.4430 14.38168611 80786
